{
  "type": "FeatureCollection",
  "features": [
    {
      "type": "Feature",
      "properties": {
        "norad_id": 65731,
        "name": "1998-067XK",
        "group": "stations",
        "lat": 24.815418460843212,
        "lon": -103.57058456279896,
        "alt_km": 366.7823050543757,
        "timestamp": "2025-12-20T11:30:27.135551+00:00",
        "meta_object_name": "1998-067XK",
        "meta_object_id": "1998-067XK",
        "meta_epoch": "2025-12-20T00:10:02.025696",
        "meta_mean_motion": 15.67078773,
        "meta_eccentricity": 0.0004764,
        "meta_inclination": 51.6294,
        "meta_ra_of_asc_node": 100.3244,
        "meta_arg_of_pericenter": 292.7833,
        "meta_mean_anomaly": 67.2659,
        "meta_ephemeris_type": 0,
        "meta_classification_type": "U",
        "meta_norad_cat_id": 65731,
        "meta_element_set_no": 999,
        "meta_rev_at_epoch": 1428,
        "meta_bstar": 0.00070175,
        "meta_mean_motion_dot": 0.00076617,
        "meta_mean_motion_ddot": 0,
        "tle_line1": "1 65731U 98067XK  25354.00696789  .00076617  00000+0  70175-3 0  9995",
        "tle_line2": "2 65731  51.6294 100.3244 0004764 292.7833  67.2659 15.67078773 14281"
      },
      "geometry": {
        "type": "Point",
        "coordinates": [
          -103.57058456279896,
          24.815418460843212
        ]
      }
    },
    {
      "type": "Feature",
      "properties": {
        "norad_id": 65732,
        "name": "RSP-03",
        "group": "stations",
        "lat": -20.99828398784049,
        "lon": -65.26210533558472,
        "alt_km": 360.53762441633444,
        "timestamp": "2025-12-20T11:30:27.135562+00:00",
        "meta_object_name": "RSP-03",
        "meta_object_id": "1998-067XL",
        "meta_epoch": "2025-12-19T10:11:34.022112",
        "meta_mean_motion": 15.70283101,
        "meta_eccentricity": 0.0005658,
        "meta_inclination": 51.6265,
        "meta_ra_of_asc_node": 102.4221,
        "meta_arg_of_pericenter": 294.5755,
        "meta_mean_anomaly": 65.4652,
        "meta_ephemeris_type": 0,
        "meta_classification_type": "U",
        "meta_norad_cat_id": 65732,
        "meta_element_set_no": 999,
        "meta_rev_at_epoch": 1421,
        "meta_bstar": 0.00084699,
        "meta_mean_motion_dot": 0.00106087,
        "meta_mean_motion_ddot": 0,
        "tle_line1": "1 65732U 98067XL  25353.42469933  .00106087  00000+0  84699-3 0  9991",
        "tle_line2": "2 65732  51.6265 102.4221 0005658 294.5755  65.4652 15.70283101 14217"
      },
      "geometry": {
        "type": "Point",
        "coordinates": [
          -65.26210533558472,
          -20.99828398784049
        ]
      }
    },
    {
      "type": "Feature",
      "properties": {
        "norad_id": 65733,
        "name": "GHS-01",
        "group": "stations",
        "lat": -31.928292186924043,
        "lon": 65.70839337874058,
        "alt_km": 334.1312406273928,
        "timestamp": "2025-12-20T11:30:27.135573+00:00",
        "meta_object_name": "GHS-01",
        "meta_object_id": "1998-067XM",
        "meta_epoch": "2025-12-19T17:26:50.755776",
        "meta_mean_motion": 15.77819432,
        "meta_eccentricity": 0.00083434,
        "meta_inclination": 51.6273,
        "meta_ra_of_asc_node": 99.1864,
        "meta_arg_of_pericenter": 325.0318,
        "meta_mean_anomaly": 35.0134,
        "meta_ephemeris_type": 0,
        "meta_classification_type": "U",
        "meta_norad_cat_id": 65733,
        "meta_element_set_no": 999,
        "meta_rev_at_epoch": 1428,
        "meta_bstar": 0.0010728211,
        "meta_mean_motion_dot": 0.00188446,
        "meta_mean_motion_ddot": 0,
        "tle_line1": "1 65733U 98067XM  25353.72697634  .00188446  00000+0  10728-2 0  9996",
        "tle_line2": "2 65733  51.6273  99.1864 0008343 325.0318  35.0134 15.77819432 14285"
      },
      "geometry": {
        "type": "Point",
        "coordinates": [
          65.70839337874058,
          -31.928292186924043
        ]
      }
    },
    {
      "type": "Feature",
      "properties": {
        "norad_id": 65941,
        "name": "YOTSUBA-KULOVER",
        "group": "stations",
        "lat": 51.51414372131711,
        "lon": -173.67214551550484,
        "alt_km": 379.9440358054544,
        "timestamp": "2025-12-20T11:30:27.135585+00:00",
        "meta_object_name": "YOTSUBA-KULOVER",
        "meta_object_id": "1998-067XN",
        "meta_epoch": "2025-12-19T10:32:35.848320",
        "meta_mean_motion": 15.60329664,
        "meta_eccentricity": 0.00017537,
        "meta_inclination": 51.6289,
        "meta_ra_of_asc_node": 106.2819,
        "meta_arg_of_pericenter": 320.2615,
        "meta_mean_anomaly": 39.8249,
        "meta_ephemeris_type": 0,
        "meta_classification_type": "U",
        "meta_norad_cat_id": 65941,
        "meta_element_set_no": 999,
        "meta_rev_at_epoch": 1090,
        "meta_bstar": 0.0006131661,
        "meta_mean_motion_dot": 0.00050991,
        "meta_mean_motion_ddot": 0,
        "tle_line1": "1 65941U 98067XN  25353.43930380  .00050991  00000+0  61317-3 0  9997",
        "tle_line2": "2 65941  51.6289 106.2819 0001753 320.2615  39.8249 15.60329664 10907"
      },
      "geometry": {
        "type": "Point",
        "coordinates": [
          -173.67214551550484,
          51.51414372131711
        ]
      }
    },
    {
      "type": "Feature",
      "properties": {
        "norad_id": 65942,
        "name": "BOTAN",
        "group": "stations",
        "lat": 16.05813162872584,
        "lon": -93.04079571173578,
        "alt_km": 374.84384191286426,
        "timestamp": "2025-12-20T11:30:27.135595+00:00",
        "meta_object_name": "BOTAN",
        "meta_object_id": "1998-067XP",
        "meta_epoch": "2025-12-19T08:45:55.508256",
        "meta_mean_motion": 15.64228558,
        "meta_eccentricity": 0.00028928,
        "meta_inclination": 51.6281,
        "meta_ra_of_asc_node": 105.787,
        "meta_arg_of_pericenter": 295.6773,
        "meta_mean_anomaly": 64.3923,
        "meta_ephemeris_type": 0,
        "meta_classification_type": "U",
        "meta_norad_cat_id": 65942,
        "meta_element_set_no": 999,
        "meta_rev_at_epoch": 1090,
        "meta_bstar": 0.00085844533,
        "meta_mean_motion_dot": 0.00083736,
        "meta_mean_motion_ddot": 0,
        "tle_line1": "1 65942U 98067XP  25353.36522579  .00083736  00000+0  85845-3 0  9992",
        "tle_line2": "2 65942  51.6281 105.7870 0002892 295.6773  64.3923 15.64228558 10902"
      },
      "geometry": {
        "type": "Point",
        "coordinates": [
          -93.04079571173578,
          16.05813162872584
        ]
      }
    },
    {
      "type": "Feature",
      "properties": {
        "norad_id": 65943,
        "name": "E-KAGAKU-1",
        "group": "stations",
        "lat": 51.485302867076264,
        "lon": -174.3666237362072,
        "alt_km": 380.01833786341103,
        "timestamp": "2025-12-20T11:30:27.135606+00:00",
        "meta_object_name": "E-KAGAKU-1",
        "meta_object_id": "1998-067XQ",
        "meta_epoch": "2025-12-18T08:24:49.666176",
        "meta_mean_motion": 15.60193795,
        "meta_eccentricity": 0.00013451,
        "meta_inclination": 51.6302,
        "meta_ra_of_asc_node": 111.7666,
        "meta_arg_of_pericenter": 249.8249,
        "meta_mean_anomaly": 110.26,
        "meta_ephemeris_type": 0,
        "meta_classification_type": "U",
        "meta_norad_cat_id": 65943,
        "meta_element_set_no": 999,
        "meta_rev_at_epoch": 1073,
        "meta_bstar": 0.00084619625,
        "meta_mean_motion_dot": 0.00070368,
        "meta_mean_motion_ddot": 0,
        "tle_line1": "1 65943U 98067XQ  25352.35057484  .00070368  00000+0  84620-3 0  9996",
        "tle_line2": "2 65943  51.6302 111.7666 0001345 249.8249 110.2600 15.60193795 10732"
      },
      "geometry": {
        "type": "Point",
        "coordinates": [
          -174.3666237362072,
          51.485302867076264
        ]
      }
    },
    {
      "type": "Feature",
      "properties": {
        "norad_id": 66052,
        "name": "HRC MONOBLOCK CAMERA",
        "group": "stations",
        "lat": -51.285347935335615,
        "lon": 21.62719664088121,
        "alt_km": 406.79098677626916,
        "timestamp": "2025-12-20T11:30:27.135616+00:00",
        "meta_object_name": "HRC MONOBLOCK CAMERA",
        "meta_object_id": "1998-067XR",
        "meta_epoch": "2025-12-20T01:04:16.026816",
        "meta_mean_motion": 15.54630593,
        "meta_eccentricity": 0.0002482,
        "meta_inclination": 51.6306,
        "meta_ra_of_asc_node": 105.0705,
        "meta_arg_of_pericenter": 219.0079,
        "meta_mean_anomaly": 141.0733,
        "meta_ephemeris_type": 0,
        "meta_classification_type": "U",
        "meta_norad_cat_id": 66052,
        "meta_element_set_no": 999,
        "meta_rev_at_epoch": 997,
        "meta_bstar": 0.00040364,
        "meta_mean_motion_dot": 0.00026826,
        "meta_mean_motion_ddot": 0,
        "tle_line1": "1 66052U 98067XR  25354.04462994  .00026826  00000+0  40364-3 0  9999",
        "tle_line2": "2 66052  51.6306 105.0705 0002482 219.0079 141.0733 15.54630593  9979"
      },
      "geometry": {
        "type": "Point",
        "coordinates": [
          21.62719664088121,
          -51.285347935335615
        ]
      }
    }
  ]
}